#aV2023 10 13  0  0  0.00000000     288 DD+AD WGS84 FIT  NGA
## 2283 432000.00000000   300.00000000 60230 0.0000000000000
+   32     1  2  3  4  5  6  7  8  9 10 11 12 13 14 15 16 17
+         18 19 20 21 22 23 24 25 26 27 28 29 30 31 32  0  0
+          0  0  0  0  0  0  0  0  0  0  0  0  0  0  0  0  0
+          0  0  0  0  0  0  0  0  0  0  0  0  0  0  0  0  0
+          0  0  0  0  0  0  0  0  0  0  0  0  0  0  0  0  0
++         2  2  2  2  2  2  2  2  2  2  2  2  2  2  2  2  2
++         2  2  2  2  2  2  2  2  2  2  2  2  2  2  2  0  0
++         0  0  0  0  0  0  0  0  0  0  0  0  0  0  0  0  0
++         0  0  0  0  0  0  0  0  0  0  0  0  0  0  0  0  0
++         0  0  0  0  0  0  0  0  0  0  0  0  0  0  0  0  0
%c cc cc ccc ccc cccc cccc cccc cccc ccccc ccccc ccccc ccccc
%c cc cc ccc ccc cccc cccc cccc cccc ccccc ccccc ccccc ccccc
%f  0.0000000  0.000000000  0.00000000000  0.000000000000000
%f  0.0000000  0.000000000  0.00000000000  0.000000000000000
%i    0    0    0    0      0      0      0      0         0
%i    0    0    0    0      0      0      0      0         0
/*      NGA, ST. LOUIS,MO.                                  
/*   EPHEMERIS COMPUTED FROM 2 DAYS OF DATA                 
/*   EPOCHA v8 SMOOTHER                                     
/*   G2139 IERS2010 SATIGS SATAPC                           
*  2023 10 13 21 30  0.00000000
P  1 -21024.677139 -15083.658559  -7078.574175    163.774444                    
V  1   8227.159411   2306.121620 -30523.793374     -0.004665                    
P  2 -17655.022053 -15267.980418 -12341.020257   -542.410067                    
V  2  16172.672261   3447.768054 -26157.604508      0.047200                    
P  3 -12036.253084 -18094.732429  15195.162028    -80.712793                    
V  3   -394.542094 -19532.924379 -23242.689642      0.228400                    
P  4 -15295.959826  -6990.841975  20593.076325    183.565258                    
V  4  21213.062135 -15221.124505  10469.887665      0.107975                    
P  5   5737.300817  25756.646115  -2716.925266   -146.385067                    
V  5  -2136.948626   3589.982752  31726.323111     -0.014713                    
P  6 -12395.404011   9773.348605  21445.447279    531.215814                    
V  6 -24284.663165 -11746.186148  -8620.172803     -0.083439                    
P  7 -24866.809620  -4685.777801  -8353.437349     41.253117                    
V  7  -9073.577459  -6969.434001  28790.140799     -0.102190                    
P  8  -6646.137842 -14075.720321 -21561.640659   -146.960743                    
V  8  21968.013581 -16143.916008   4179.876795     -0.018588                    
P  9 -21408.915093   2523.251330  15465.104049    -33.288403                    
V  9  14532.532645 -13582.227099  22153.575000      0.107439                    
P 10  11373.194811 -14186.125661 -19054.874650    -57.220368                    
V 10   3817.756877  24388.015805 -16043.015856     -0.015183                    
P 11    821.431309  16544.530809  20789.978277   -413.672126                    
V 11 -23813.258478 -11261.977920   9859.831667     -0.173875                    
P 12   9745.837389  20828.705825  13082.016006   -435.521026                    
V 12  -1651.799626  17087.164494 -25370.186680     -0.042435                    
P 13  -3993.296061  17421.483420 -19774.514230    583.648601                    
V 13 -22412.284316  10493.777667  14120.185526      0.043297                    
P 14 -13715.019735  10527.503679 -20094.226415    213.104472                    
V 14  -3116.272869 -25500.383335 -11387.440803      0.110701                    
P 15   9405.535322  13132.495304 -21558.564278     86.802111                    
V 15 -19222.236833  18056.156365   2907.289159      0.037168                    
P 16    864.308372 -26214.547462   1762.631568   -439.594971                    
V 16   3163.765199   2600.257945  32017.290487      0.060556                    
P 17 -22903.155164  13474.834097  -1204.637761    723.830544                    
V 17    464.149487  -3108.948238 -31877.633021     -0.000675                    
P 18  24068.499522   3111.171730 -10996.772111   -447.823567                    
V 18  11738.194382   7674.966034  27664.555477     -0.117824                    
P 19 -19612.167493  16315.364385   6519.971683    384.540680                    
V 19  -8811.555392   1923.597407 -30738.151332      0.051955                    
P 20   -229.722157  24843.988349   9690.599412    406.980153                    
V 20  -5851.713304 -11032.783156  28084.165938     -0.019559                    
P 21 -15178.175740 -16162.868299 -14753.639555    146.836989                    
V 21  18738.060443   4828.087796 -22847.543529     -0.008881                    
P 22 -10998.475778  17789.797083 -16077.966683    103.504849                    
V 22  -2023.508953 -21135.037778 -21123.584433     -0.072179                    
P 23  14938.054490   -392.659349 -21956.245211     82.228045                    
V 23   3563.549405  27615.444249   1754.793353      0.057582                    
P 24  18700.217461  15501.997365 -11611.816335   -345.249636                    
V 24 -14167.001437  -2056.563882 -26028.099895     -0.098893                    
P 25  15224.834217   8213.796467  19906.249772    472.562776                    
V 25   1913.020863  25893.684692 -11692.644623      0.018333                    
P 26   5198.110893 -22748.834650  12222.105135    223.366500                    
V 26   6028.807320  15100.544784  25636.979802     -0.022395                    
P 27   6553.743747 -19340.023782 -17008.945049    -54.638149                    
V 27  18288.440553 -11009.683328  20270.510202     -0.058141                    
P 28  14188.382959  -9501.857306  20321.172401    -25.018375                    
V 28  23544.039601  10720.618559 -11411.706563     -0.068699                    
P 29  21530.037000   -771.103792  15559.460543   -610.031136                    
V 29 -16016.278450  11697.670568  22575.142706     -0.002012                    
P 30 -20374.055716   4110.761165 -16562.205173   -478.887650                    
V 30 -18421.717263 -10770.451115  19580.539334      0.036607                    
P 31   5193.909994 -14383.728426  21503.296213   -224.610246                    
V 31  25266.495136  11627.739349   2071.057868     -0.004516                    
P 32  20450.747879 -16680.939511   1892.106849   -572.195305                    
V 32   3551.233513   1116.196830 -31755.324766     -0.053264                    
EOF
